STARLINK-30900          
1 58423U 23180X   26068.01068911 -.00003255  00000+0 -10881-3 0  9991
2 58423  43.0002  56.1942 0001163 267.6681  92.4038 15.27578512127411
FLOCK 4G-7              
1 62624U 25009R   26068.79996108  .00011422  00000+0  43168-3 0  9991
2 62624  97.3984 150.8270 0001396 336.9783  23.1393 15.27141471 63725
